STARLINK-33617          
1 63373U 25063L   26105.64193855  .00010698  00000+0  37276-3 0  9994
2 63373  53.1586 238.2165 0001019  75.4870 284.6244 15.30204425 60407
STARLINK-33618          
1 63374U 25063M   26105.63876844  .00006665  00000+0  23682-3 0  9995
2 63374  53.1593 238.1971 0000230   2.2130 357.8871 15.30216526 60450
STARLINK-33621          
1 63375U 25063N   26105.63771434  .00013067  00000+0  45237-3 0  9999
2 63375  53.1590 238.1896 0001112  93.8159 266.2969 15.30211551 60400
STARLINK-33539          
1 63376U 25063P   26105.82788261  .00009834  00000+0  34366-3 0  9995
2 63376  53.1583 250.0132 0001256  82.4048 277.7096 15.30203218 60251
STARLINK-33634          
1 63377U 25063Q   26106.06073713  .00010575  00000+0  36861-3 0  9998
2 63377  53.1578 238.6939 0001026  55.3207 304.7890 15.30205196 60489
STARLINK-33640          
1 63378U 25063R   26106.06601329  .00007988  00000+0  28153-3 0  9998
2 63378  53.1561 238.7252 0000658  58.2466 301.8599 15.30200237 60485
STARLINK-33636          
1 63379U 25063S   26106.05271176  .00013508  00000+0  45737-3 0  9993
2 63379  53.1584 238.6495 0001043 335.3830  24.7121 15.30902967 60438
STARLINK-33653          
1 63380U 25063T   26105.68468087  .00009142  00000+0  32037-3 0  9990
2 63380  53.1588 240.6150 0001340  84.5183 275.5971 15.30202302 60377
STARLINK-33643          
1 63381U 25063U   26106.07129059  .00012112  00000+0  42038-3 0  9991
2 63381  53.1580 238.7600 0001000  80.2350 279.8764 15.30200601 60489
STARLINK-33633          
1 63382U 25063V   26106.25002315  .00401585  78531-4  82221-3 0  9990
2 63382  53.1414 211.9103 0016027 319.8738 358.1431 15.98602029  5994
STARLINK-33748          
1 63383U 25063W   26105.81744230  .00010459  00000+0  36471-3 0  9994
2 63383  53.1595 250.6708 0001044  85.8841 274.2279 15.30204682 60295
STARLINK-33658          
1 63384U 25063X   26105.69839785  .00008427  00000+0  29631-3 0  9993
2 63384  53.1612 240.6956 0001147  88.0156 272.0976 15.30201600 60420
STARLINK-33616          
1 63385U 25063Y   26105.81533290  .00014755  00000+0  50914-3 0  9999
2 63385  53.1587 250.6657 0000765  83.3967 276.7121 15.30210946 60240
STARLINK-33571          
1 63386U 25063Z   26105.80055494  .00014608  00000+0  50432-3 0  9996
2 63386  53.1590 250.5458 0000858  78.6845 281.4252 15.30202801 60247
STARLINK-33533          
1 63387U 25063AA  26105.84632582  .00011942  00000+0  41456-3 0  9994
2 63387  53.1592 237.3614 0001070  84.7538 275.3585 15.30209856 60430
STARLINK-33629          
1 63388U 25063AB  26105.79050852  .00003465  00000+0  12900-3 0  9996
2 63388  53.1576 237.7213 0001678  76.0015 284.1172 15.30214458 60478
STARLINK-33656          
1 63389U 25063AC  26105.68889990  .00004403  00000+0  16070-3 0  9993
2 63389  53.1587 240.6392 0000848  85.1079 275.0019 15.30199343 60420
STARLINK-33531          
1 63399U 25065A   26105.91265041  .00008433  00000+0  31572-3 0  9998
2 63399  42.9988 256.7856 0001563 267.3074  92.7599 15.27570339 58539
STARLINK-33652          
1 63400U 25065B   26105.75618163  .00006482  00000+0  24479-3 0  9990
2 63400  43.0007 257.3284 0001860 274.5503  85.5136 15.27589603 58514
STARLINK-33707          
1 63401U 25065C   26105.90879958  .00005773  00000+0  21909-3 0  9996
2 63401  42.9973 256.7589 0001097 272.3554  87.7172 15.27589850 58530
STARLINK-33668          
1 63402U 25065D   26105.79601802  .00008449  00000+0  31614-3 0  9992
2 63402  43.0012 257.6317 0001355 266.3523  93.7174 15.27586535 58516
STARLINK-33676          
1 63403U 25065E   26105.84213565  .00005857  00000+0  22216-3 0  9992
2 63403  42.9940 257.1181 0000531 309.3732  50.7072 15.27581438 58522
STARLINK-33711          
1 63404U 25065F   26104.90487469  .00010132  00000+0  37712-3 0  9994
2 63404  43.0001 262.1226 0001462 271.4904  88.5780 15.27587284 58387
STARLINK-33708          
1 63405U 25065G   26105.78059611  .00005967  00000+0  22612-3 0  9999
2 63405  43.0010 257.5072 0001430 277.2896  82.7793 15.27586431 58512
STARLINK-33690          
1 63406U 25065H   26105.81562971  .00013093  00000+0  48470-3 0  9991
2 63406  42.9998 253.4576 0001521 263.9442  96.1237 15.27563983 58564
STARLINK-33694          
1 63407U 25065J   26105.90365784  .00008784  00000+0  32823-3 0  9991
2 63407  42.9988 256.7065 0001455 273.8856  86.1829 15.27589512 58537
STARLINK-33692          
1 63408U 25065K   26106.14302074  .00003354  00000+0  13135-3 0  9995
2 63408  43.0064 259.3845 0001691 268.7456  91.3202 15.27577224 58520
STARLINK-33693          
1 63409U 25065L   26105.79087549  .00009731  00000+0  36257-3 0  9998
2 63409  43.0004 257.5824 0001410 273.6327  86.4363 15.27589305 58518
STARLINK-33677          
1 63410U 25065M   26105.78316507  .00008106  00000+0  30367-3 0  9999
2 63410  43.0005 257.5213 0001382 273.9150  86.1543 15.27588973 58515
STARLINK-33647          
1 63411U 25065N   26105.83102773  .00009042  00000+0  33758-3 0  9991
2 63411  43.0011 264.8152 0001201 257.9234 102.1483 15.27590745 58434
