OBJECT_NAME,OBJECT_ID,EPOCH,MEAN_MOTION,ECCENTRICITY,INCLINATION,RA_OF_ASC_NODE,ARG_OF_PERICENTER,MEAN_ANOMALY,EPHEMERIS_TYPE,CLASSIFICATION_TYPE,NORAD_CAT_ID,ELEMENT_SET_NO,REV_AT_EPOCH,BSTAR,MEAN_MOTION_DOT,MEAN_MOTION_DDOT
STARLINK-33617,2025-063L,2026-04-15T15:24:23.490720,15.30204425,0.0001019,53.1586,238.2165,75.487,284.6244,0,U,63373,999,6040,0.00037276,0.00010698,0.0
STARLINK-33618,2025-063M,2026-04-15T15:19:49.593216,15.30216526,2.3e-05,53.1593,238.1971,2.213,357.8871,0,U,63374,999,6045,0.00023682,6.665e-05,0.0
STARLINK-33621,2025-063N,2026-04-15T15:18:18.518976,15.30211551,0.0001112,53.159,238.1896,93.8159,266.2969,0,U,63375,999,6040,0.00045237,0.00013067,0.0
STARLINK-33539,2025-063P,2026-04-15T19:52:09.057504,15.30203218,0.00012565,53.1583,250.0132,82.4048,277.7096,0,U,63376,999,6025,0.00034366317,9.834e-05,0.0
STARLINK-33634,2025-063Q,2026-04-16T01:27:27.688032,15.30205196,0.00010265,53.1578,238.6939,55.3207,304.789,0,U,63377,999,6048,0.00036860782,0.00010575,0.0
STARLINK-33640,2025-063R,2026-04-16T01:35:03.548256,15.30200237,6.584e-05,53.1561,238.7252,58.2466,301.8599,0,U,63378,999,6048,0.00028153154,7.988e-05,0.0
STARLINK-33636,2025-063S,2026-04-16T01:15:54.296064,15.30902967,0.00010434,53.1584,238.6495,335.383,24.7121,0,U,63379,999,6043,0.00045737331,0.00013508,0.0
STARLINK-33653,2025-063T,2026-04-15T16:25:56.427168,15.30202302,0.00013406,53.1588,240.615,84.5183,275.5971,0,U,63380,999,6037,0.00032037396,9.142e-05,0.0
STARLINK-33643,2025-063U,2026-04-16T01:42:39.506976,15.30200601,0.00010004,53.158,238.76,80.235,279.8764,0,U,63381,999,6048,0.00042038431,0.00012112,0.0
STARLINK-33633,2025-063V,2026-04-16T06:00:02.000160,15.98602029,0.00160277,53.1414,211.9103,319.8738,358.1431,0,U,63382,999,599,0.00082221369,0.00401585,7.8530878e-05
STARLINK-33748,2025-063W,2026-04-15T19:37:07.014720,15.30204682,0.00010441,53.1595,250.6708,85.8841,274.2279,0,U,63383,999,6029,0.00036470516,0.00010459,0.0
STARLINK-33658,2025-063X,2026-04-15T16:45:41.574240,15.302016,0.00011475,53.1612,240.6956,88.0156,272.0976,0,U,63384,999,6042,0.00029630846,8.427e-05,0.0
STARLINK-33616,2025-063Y,2026-04-15T19:34:04.762560,15.30210946,7.651e-05,53.1587,250.6657,83.3967,276.7121,0,U,63385,999,6024,0.00050913811,0.00014755,0.0
STARLINK-33571,2025-063Z,2026-04-15T19:12:47.946816,15.30202801,8.58e-05,53.159,250.5458,78.6845,281.4252,0,U,63386,999,6024,0.00050432038,0.00014608,0.0
STARLINK-33533,2025-063AA,2026-04-15T20:18:42.550848,15.30209856,0.00010707,53.1592,237.3614,84.7538,275.3585,0,U,63387,999,6043,0.00041456202,0.00011942,0.0
STARLINK-33629,2025-063AB,2026-04-15T18:58:19.936128,15.30214458,0.00016782,53.1576,237.7213,76.0015,284.1172,0,U,63388,999,6047,0.00012899955,3.465e-05,0.0
STARLINK-33656,2025-063AC,2026-04-15T16:32:00.951360,15.30199343,8.484e-05,53.1587,240.6392,85.1079,275.0019,0,U,63389,999,6042,0.00016069949,4.403e-05,0.0
STARLINK-33531,2025-065A,2026-04-15T21:54:12.995424,15.27570339,0.00015634,42.9988,256.7856,267.3074,92.7599,0,U,63399,999,5853,0.00031571907,8.433e-05,0.0
STARLINK-33652,2025-065B,2026-04-15T18:08:54.092832,15.27589603,0.00018609,43.0007,257.3284,274.5503,85.5136,0,U,63400,999,5851,0.00024479379,6.482e-05,0.0
STARLINK-33707,2025-065C,2026-04-15T21:48:40.283712,15.2758985,0.00010974,42.9973,256.7589,272.3554,87.7172,0,U,63401,999,5853,0.00021909064,5.773e-05,0.0
STARLINK-33668,2025-065D,2026-04-15T19:06:15.956928,15.27586535,0.00013551,43.0012,257.6317,266.3523,93.7174,0,U,63402,999,5851,0.00031614148,8.449e-05,0.0
STARLINK-33676,2025-065E,2026-04-15T20:12:40.520160,15.27581438,5.315e-05,42.994,257.1181,309.3732,50.7072,0,U,63403,999,5852,0.00022216206,5.857e-05,0.0
STARLINK-33711,2025-065F,2026-04-14T21:43:01.173216,15.27587284,0.0001462,43.0001,262.1226,271.4904,88.578,0,U,63404,999,5838,0.00037712,0.00010132,0.0
STARLINK-33708,2025-065G,2026-04-15T18:44:03.503904,15.27586431,0.00014309,43.001,257.5072,277.2896,82.7793,0,U,63405,999,5851,0.00022612266,5.967e-05,0.0
STARLINK-33690,2025-065H,2026-04-15T19:34:30.406944,15.27563983,0.0001521,42.9998,253.4576,263.9442,96.1237,0,U,63406,999,5856,0.00048469628,0.00013093,0.0
STARLINK-33694,2025-065J,2026-04-15T21:41:16.037376,15.27589512,0.00014557,42.9988,256.7065,273.8856,86.1829,0,U,63407,999,5853,0.00032823494,8.784e-05,0.0
STARLINK-33692,2025-065K,2026-04-16T03:25:56.991936,15.27577224,0.00016919,43.0064,259.3845,268.7456,91.3202,0,U,63408,999,5852,0.00013135424,3.354e-05,0.0
STARLINK-33693,2025-065L,2026-04-15T18:58:51.642336,15.27589305,0.00014102,43.0004,257.5824,273.6327,86.4363,0,U,63409,999,5851,0.00036256785,9.731e-05,0.0
STARLINK-33677,2025-065M,2026-04-15T18:47:45.462048,15.27588973,0.00013829,43.0005,257.5213,273.915,86.1543,0,U,63410,999,5851,0.00030367161,8.106e-05,0.0
STARLINK-33647,2025-065N,2026-04-15T19:56:40.795872,15.27590745,0.00012015,43.0011,264.8152,257.9234,102.1483,0,U,63411,999,5843,0.00033757931,9.042e-05,0.0
